[{"OBJECT_NAME":"STARLINK-1894","OBJECT_ID":"2020-074F","EPOCH":"2026-03-10T00:00:02.999808","MEAN_MOTION":15.80712393,"ECCENTRICITY":0.00023349,"INCLINATION":53.0425,"RA_OF_ASC_NODE":276.1954,"ARG_OF_PERICENTER":282.1358,"MEAN_ANOMALY":10.1034,"EPHEMERIS_TYPE":0,"CLASSIFICATION_TYPE":"U","NORAD_CAT_ID":46744,"ELEMENT_SET_NO":999,"REV_AT_EPOCH":597,"BSTAR":0.0014063958,"MEAN_MOTION_DOT":0.00284143,"MEAN_MOTION_DDOT":0},{"OBJECT_NAME":"UNKNOWN","OBJECT_ID":"","EPOCH":"2026-03-09T00:48:08.930880","MEAN_MOTION":15.7514874,"ECCENTRICITY":0.0019769,"INCLINATION":97.6379,"RA_OF_ASC_NODE":94.4029,"ARG_OF_PERICENTER":114.9652,"MEAN_ANOMALY":245.3669,"EPHEMERIS_TYPE":0,"CLASSIFICATION_TYPE":"U","NORAD_CAT_ID":89161,"ELEMENT_SET_NO":999,"REV_AT_EPOCH":56197,"BSTAR":0.0042433,"MEAN_MOTION_DOT":0.00691245,"MEAN_MOTION_DDOT":0}]
